{
  "type": "FeatureCollection",
  "features": [
    {
      "type": "Feature",
      "properties": {
        "norad_id": 39766,
        "name": "ALOS-2",
        "group": "resource",
        "lat": 82.0447213045099,
        "lon": -12.103102761210366,
        "alt_km": 622.5518771803663,
        "timestamp": "2025-12-04T05:42:43.034937+00:00",
        "meta_object_name": "ALOS-2",
        "meta_object_id": "2014-029A",
        "meta_epoch": "2025-12-03T22:49:00.657120",
        "meta_mean_motion": 14.79455072,
        "meta_eccentricity": 0.00015277,
        "meta_inclination": 97.9237,
        "meta_ra_of_asc_node": 72.9222,
        "meta_arg_of_pericenter": 108.2088,
        "meta_mean_anomaly": 251.929,
        "meta_ephemeris_type": 0,
        "meta_classification_type": "U",
        "meta_norad_cat_id": 39766,
        "meta_element_set_no": 999,
        "meta_rev_at_epoch": 62271,
        "meta_bstar": 0.00058642782,
        "meta_mean_motion_dot": 4.329e-05,
        "meta_mean_motion_ddot": 0,
        "tle_line1": "1 39766U 14029A   25337.95070205  .00004329  00000+0  58643-3 0  9991",
        "tle_line2": "2 39766  97.9237  72.9222 0001527 108.2088 251.9290 14.79455072622716"
      },
      "geometry": {
        "type": "Point",
        "coordinates": [
          -12.103102761210366,
          82.0447213045099
        ]
      }
    },
    {
      "type": "Feature",
      "properties": {
        "norad_id": 40010,
        "name": "KAZEOSAT 2",
        "group": "resource",
        "lat": -5.676146471285087,
        "lon": 2.235703825609742,
        "alt_km": 613.82046376779,
        "timestamp": "2025-12-04T05:42:43.034947+00:00",
        "meta_object_name": "KAZEOSAT 2",
        "meta_object_id": "2014-033A",
        "meta_epoch": "2025-12-03T22:24:36.750816",
        "meta_mean_motion": 14.85146043,
        "meta_eccentricity": 0.00072536,
        "meta_inclination": 97.5511,
        "meta_ra_of_asc_node": 182.7027,
        "meta_arg_of_pericenter": 239.6442,
        "meta_mean_anomaly": 120.4057,
        "meta_ephemeris_type": 0,
        "meta_classification_type": "U",
        "meta_norad_cat_id": 40010,
        "meta_element_set_no": 999,
        "meta_rev_at_epoch": 61997,
        "meta_bstar": 0.00018096621,
        "meta_mean_motion_dot": 1.499e-05,
        "meta_mean_motion_ddot": 0,
        "tle_line1": "1 40010U 14033A   25337.93375869  .00001499  00000+0  18097-3 0  9996",
        "tle_line2": "2 40010  97.5511 182.7027 0007253 239.6442 120.4057 14.85146043619976"
      },
      "geometry": {
        "type": "Point",
        "coordinates": [
          2.235703825609742,
          -5.676146471285087
        ]
      }
    },
    {
      "type": "Feature",
      "properties": {
        "norad_id": 40011,
        "name": "HODOYOSHI-4",
        "group": "resource",
        "lat": -22.92124261409692,
        "lon": -15.670659259321427,
        "alt_km": 597.2995193292518,
        "timestamp": "2025-12-04T05:42:43.034957+00:00",
        "meta_object_name": "HODOYOSHI-4",
        "meta_object_id": "2014-033B",
        "meta_epoch": "2025-12-03T22:20:33.044064",
        "meta_mean_motion": 14.87429971,
        "meta_eccentricity": 0.00226743,
        "meta_inclination": 97.5415,
        "meta_ra_of_asc_node": 167.2489,
        "meta_arg_of_pericenter": 230.8603,
        "meta_mean_anomaly": 129.0599,
        "meta_ephemeris_type": 0,
        "meta_classification_type": "U",
        "meta_norad_cat_id": 40011,
        "meta_element_set_no": 999,
        "meta_rev_at_epoch": 61977,
        "meta_bstar": 0.00039884384,
        "meta_mean_motion_dot": 3.574e-05,
        "meta_mean_motion_ddot": 0,
        "tle_line1": "1 40011U 14033B   25337.93093801  .00003574  00000+0  39884-3 0  9993",
        "tle_line2": "2 40011  97.5415 167.2489 0022674 230.8603 129.0599 14.87429971619776"
      },
      "geometry": {
        "type": "Point",
        "coordinates": [
          -15.670659259321427,
          -22.92124261409692
        ]
      }
    },
    {
      "type": "Feature",
      "properties": {
        "norad_id": 40013,
        "name": "DEIMOS-2",
        "group": "resource",
        "lat": -12.641908347933748,
        "lon": 32.60005215203057,
        "alt_km": 593.5408969418941,
        "timestamp": "2025-12-04T05:42:43.034967+00:00",
        "meta_object_name": "DEIMOS-2",
        "meta_object_id": "2014-033D",
        "meta_epoch": "2025-12-03T22:25:02.783136",
        "meta_mean_motion": 14.92908119,
        "meta_eccentricity": 8.315e-05,
        "meta_inclination": 97.6072,
        "meta_ra_of_asc_node": 214.024,
        "meta_arg_of_pericenter": 89.3491,
        "meta_mean_anomaly": 270.7824,
        "meta_ephemeris_type": 0,
        "meta_classification_type": "U",
        "meta_norad_cat_id": 40013,
        "meta_element_set_no": 999,
        "meta_rev_at_epoch": 60858,
        "meta_bstar": 0.00048451919,
        "meta_mean_motion_dot": 4.971e-05,
        "meta_mean_motion_ddot": 0,
        "tle_line1": "1 40013U 14033D   25337.93405999  .00004971  00000+0  48452-3 0  9993",
        "tle_line2": "2 40013  97.6072 214.0240 0000831  89.3491 270.7824 14.92908119608581"
      },
      "geometry": {
        "type": "Point",
        "coordinates": [
          32.60005215203057,
          -12.641908347933748
        ]
      }
    },
    {
      "type": "Feature",
      "properties": {
        "norad_id": 40015,
        "name": "HODOYOSHI-3",
        "group": "resource",
        "lat": -29.664776390078693,
        "lon": -39.929908891558355,
        "alt_km": 611.6394159484062,
        "timestamp": "2025-12-04T05:42:43.034977+00:00",
        "meta_object_name": "HODOYOSHI-3",
        "meta_object_id": "2014-033F",
        "meta_epoch": "2025-12-03T22:17:48.802848",
        "meta_mean_motion": 14.84758489,
        "meta_eccentricity": 0.00318277,
        "meta_inclination": 97.6194,
        "meta_ra_of_asc_node": 144.1475,
        "meta_arg_of_pericenter": 278.1142,
        "meta_mean_anomaly": 81.6463,
        "meta_ephemeris_type": 0,
        "meta_classification_type": "U",
        "meta_norad_cat_id": 40015,
        "meta_element_set_no": 999,
        "meta_rev_at_epoch": 61864,
        "meta_bstar": 0.00041965362,
        "meta_mean_motion_dot": 3.538e-05,
        "meta_mean_motion_ddot": 0,
        "tle_line1": "1 40015U 14033F   25337.92903707  .00003538  00000+0  41965-3 0  9994",
        "tle_line2": "2 40015  97.6194 144.1475 0031827 278.1142  81.6463 14.84758489618641"
      },
      "geometry": {
        "type": "Point",
        "coordinates": [
          -39.929908891558355,
          -29.664776390078693
        ]
      }
    },
    {
      "type": "Feature",
      "properties": {
        "norad_id": 40053,
        "name": "SPOT 7",
        "group": "resource",
        "lat": -51.480489967742436,
        "lon": 50.804886088249155,
        "alt_km": 698.7123123556639,
        "timestamp": "2025-12-04T05:42:43.034987+00:00",
        "meta_object_name": "SPOT 7",
        "meta_object_id": "2014-034A",
        "meta_epoch": "2025-12-03T23:22:28.479936",
        "meta_mean_motion": 14.60716684,
        "meta_eccentricity": 0.00015227,
        "meta_inclination": 98.0918,
        "meta_ra_of_asc_node": 40.251,
        "meta_arg_of_pericenter": 96.6671,
        "meta_mean_anomaly": 263.4703,
        "meta_ephemeris_type": 0,
        "meta_classification_type": "U",
        "meta_norad_cat_id": 40053,
        "meta_element_set_no": 999,
        "meta_rev_at_epoch": 60863,
        "meta_bstar": 0.00024841289,
        "meta_mean_motion_dot": 1.165e-05,
        "meta_mean_motion_ddot": 0,
        "tle_line1": "1 40053U 14034A   25337.97394074  .00001165  00000+0  24841-3 0  9991",
        "tle_line2": "2 40053  98.0918  40.2510 0001522  96.6671 263.4703 14.60716684608637"
      },
      "geometry": {
        "type": "Point",
        "coordinates": [
          50.804886088249155,
          -51.480489967742436
        ]
      }
    },
    {
      "type": "Feature",
      "properties": {
        "norad_id": 40072,
        "name": "SKYSAT-B",
        "group": "resource",
        "lat": 29.205263602569577,
        "lon": 106.21072949785291,
        "alt_km": 601.6619476616124,
        "timestamp": "2025-12-04T05:42:43.034998+00:00",
        "meta_object_name": "SKYSAT-B",
        "meta_object_id": "2014-037D",
        "meta_epoch": "2025-12-03T20:57:52.963488",
        "meta_mean_motion": 14.87274335,
        "meta_eccentricity": 0.00054224,
        "meta_inclination": 98.3594,
        "meta_ra_of_asc_node": 281.1123,
        "meta_arg_of_pericenter": 177.5865,
        "meta_mean_anomaly": 182.5376,
        "meta_ephemeris_type": 0,
        "meta_classification_type": "U",
        "meta_norad_cat_id": 40072,
        "meta_element_set_no": 999,
        "meta_rev_at_epoch": 61692,
        "meta_bstar": 0.00041997697,
        "meta_mean_motion_dot": 3.727e-05,
        "meta_mean_motion_ddot": 0,
        "tle_line1": "1 40072U 14037D   25337.87352967  .00003727  00000+0  41998-3 0  9997",
        "tle_line2": "2 40072  98.3594 281.1123 0005422 177.5865 182.5376 14.87274335616923"
      },
      "geometry": {
        "type": "Point",
        "coordinates": [
          106.21072949785291,
          29.205263602569577
        ]
      }
    }
  ]
}